IRIDIUM 106             
1 41917U 17003A   25182.57845188 -.00000013  00000+0 -11852-4 0  9993
2 41917  86.3967 234.9888 0001940  81.2094 278.9321 14.34217328442954
IRIDIUM 103             
1 41918U 17003B   25182.56576854 -.00000022  00000+0 -14919-4 0  9991
2 41918  86.3966 234.8948 0002736  85.5181 274.6327 14.34217228442978
IRIDIUM 109             
1 41919U 17003C   25182.57211006 -.00000025  00000+0 -16101-4 0  9996
2 41919  86.3968 234.9459 0002388  94.6454 265.5015 14.34217308442945
IRIDIUM 102             
1 41920U 17003D   25182.61016442  .00000061  00000+0  14554-4 0  9998
2 41920  86.3963 234.8611 0002320  96.6643 263.4817 14.34217259443032
IRIDIUM 105             
1 41921U 17003E   25182.58089712  .00000171  00000+0  53867-4 0  9997
2 41921  86.3984 203.3444 0002504  87.9888 272.1594 14.34219945444886
IRIDIUM 104             
1 41922U 17003F   25182.55308288  .00000007  00000+0 -45203-5 0  9992
2 41922  86.3968 234.9222 0002652  95.8543 264.2955 14.34217486443018
IRIDIUM 114             
1 41923U 17003G   25182.55942459  .00000019  00000+0 -20198-6 0  9997
2 41923  86.3967 234.9040 0002420  87.6971 272.4501 14.34217657442997
IRIDIUM 108             
1 41924U 17003H   25182.58771303 -.00000019  00000+0 -13779-4 0  9995
2 41924  86.3984 203.2420 0001999  89.8961 270.2464 14.34217547444850
